[{"OBJECT_NAME":"STARLINK-31787","OBJECT_ID":"2024-082V","EPOCH":"2026-03-09T05:50:33.653184","MEAN_MOTION":15.27563218,"ECCENTRICITY":0.00013535,"INCLINATION":43.0025,"RA_OF_ASC_NODE":142.3366,"ARG_OF_PERICENTER":279.3186,"MEAN_ANOMALY":80.7512,"EPHEMERIS_TYPE":0,"CLASSIFICATION_TYPE":"U","NORAD_CAT_ID":59650,"ELEMENT_SET_NO":999,"REV_AT_EPOCH":10494,"BSTAR":4.8583506e-5,"MEAN_MOTION_DOT":1.074e-5,"MEAN_MOTION_DDOT":0},{"OBJECT_NAME":"SL-3 R\/B","OBJECT_ID":"1982-027B","EPOCH":"2026-03-09T22:44:40.208640","MEAN_MOTION":15.28335844,"ECCENTRICITY":0.00065199,"INCLINATION":81.188,"RA_OF_ASC_NODE":37.4466,"ARG_OF_PERICENTER":276.581,"MEAN_ANOMALY":83.4683,"EPHEMERIS_TYPE":0,"CLASSIFICATION_TYPE":"U","NORAD_CAT_ID":13121,"ELEMENT_SET_NO":999,"REV_AT_EPOCH":39859,"BSTAR":0.00030526741,"MEAN_MOTION_DOT":8.453e-5,"MEAN_MOTION_DDOT":0}]
